{"type":"FeatureCollection","features":[{"type":"Feature","properties":{"slug":"901","short_name":"901","direction_id":0},"geometry":{"type":"LineString","coordinates":[[-122.94,47.038],[-122.924,47.05],[-122.918,47.05],[-122.912,47.05],[-122.906,47.05],[-122.9,47.05],[-122.894,47.05],[-122.888,47.05],[-122.882,47.05],[-122.868,47.054]]}},{"type":"Feature","properties":{"slug":"901","short_name":"901","direction_id":1},"geometry":{"type":"LineString","coordinates":[[-122.868,47.054],[-122.882,47.05],[-122.888,47.05],[-122.894,47.05],[-122.9,47.05],[-122.906,47.05],[-122.912,47.05],[-122.918,47.05],[-122.924,47.05],[-122.94,47.038]]}},{"type":"Feature","properties":{"slug":"902","short_name":"902","direction_id":0},"geometry":{"type":"LineString","coordinates":[[-122.94,47.038],[-122.924,47.042],[-122.918,47.042],[-122.912,47.042],[-122.906,47.042],[-122.9,47.042],[-122.894,47.042],[-122.888,47.042],[-122.872,47.046]]}},{"type":"Feature","properties":{"slug":"902","short_name":"902","direction_id":1},"geometry":{"type":"LineString","coordinates":[[-122.872,47.046],[-122.888,47.042],[-122.894,47.042],[-122.9,47.042],[-122.906,47.042],[-122.912,47.042],[-122.918,47.042],[-122.924,47.042],[-122.94,47.038]]}},{"type":"Feature","properties":{"slug":"903","short_name":"903","direction_id":0},"geometry":{"type":"LineString","coordinates":[[-122.882,47.034],[-122.888,47.034],[-122.894,47.034],[-122.9,47.034],[-122.906,47.034],[-122.912,47.034],[-122.918,47.034],[-122.924,47.034],[-122.94,47.038]]}},{"type":"Feature","properties":{"slug":"903","short_name":"903","direction_id":1},"geometry":{"type":"LineString","coordinates":[[-122.94,47.038],[-122.924,47.034],[-122.918,47.034],[-122.912,47.034],[-122.906,47.034],[-122.9,47.034],[-122.894,47.034],[-122.888,47.034],[-122.882,47.034]]}},{"type":"Feature","properties":{"slug":"904","short_name":"904","direction_id":0},"geometry":{"type":"LineString","coordinates":[[-122.912,47.05],[-122.912,47.042],[-122.912,47.034],[-122.912,47.026],[-122.94,47.038]]}},{"type":"Feature","properties":{"slug":"904","short_name":"904","direction_id":1},"geometry":{"type":"LineString","coordinates":[[-122.94,47.038],[-122.912,47.026],[-122.912,47.034],[-122.912,47.042],[-122.912,47.05]]}},{"type":"Feature","properties":{"slug":"905","short_name":"905","direction_id":0},"geometry":{"type":"LineString","coordinates":[[-122.924,47.026],[-122.918,47.026],[-122.912,47.026],[-122.906,47.026],[-122.9,47.026],[-122.894,47.026],[-122.94,47.038]]}},{"type":"Feature","properties":{"slug":"905","short_name":"905","direction_id":1},"geometry":{"type":"LineString","coordinates":[[-122.94,47.038],[-122.894,47.026],[-122.9,47.026],[-122.906,47.026],[-122.912,47.026],[-122.918,47.026],[-122.924,47.026]]}},{"type":"Feature","properties":{"slug":"906","short_name":"906","direction_id":0},"geometry":{"type":"LineString","coordinates":[[-122.94,47.038],[-122.868,47.054],[-122.856,47.064]]}},{"type":"Feature","properties":{"slug":"906","short_name":"906","direction_id":1},"geometry":{"type":"LineString","coordinates":[[-122.856,47.064],[-122.868,47.054],[-122.94,47.038]]}}]}
